{
  "type": "FeatureCollection",
  "features": [
    {
      "type": "Feature",
      "properties": {
        "norad_id": 30080,
        "name": "FENGYUN 1C DEB",
        "group": "fengyun-1c-debris",
        "lat": -78.47559330890083,
        "lon": 113.06668172951541,
        "alt_km": 905.0212354658061,
        "timestamp": "2025-12-27T16:33:30.496217+00:00",
        "meta_object_name": "FENGYUN 1C DEB",
        "meta_object_id": "1999-025QH",
        "meta_epoch": "2025-12-27T12:27:59.914080",
        "meta_mean_motion": 14.10838758,
        "meta_eccentricity": 0.0133327,
        "meta_inclination": 98.6999,
        "meta_ra_of_asc_node": 341.5746,
        "meta_arg_of_pericenter": 18.8552,
        "meta_mean_anomaly": 99.4739,
        "meta_ephemeris_type": 0,
        "meta_classification_type": "U",
        "meta_norad_cat_id": 30080,
        "meta_element_set_no": 999,
        "meta_rev_at_epoch": 97446,
        "meta_bstar": 0.00033759,
        "meta_mean_motion_dot": 6.15e-06,
        "meta_mean_motion_ddot": 0,
        "tle_line1": "1 30080U 99025QH  25361.51944345  .00000615  00000+0  33759-3 0  9999",
        "tle_line2": "2 30080  98.6999 341.5746 0133327  18.8552  99.4739 14.10838758974467"
      },
      "geometry": {
        "type": "Point",
        "coordinates": [
          113.06668172951541,
          -78.47559330890083
        ]
      }
    },
    {
      "type": "Feature",
      "properties": {
        "norad_id": 30081,
        "name": "FENGYUN 1C DEB",
        "group": "fengyun-1c-debris",
        "lat": 33.70026140773288,
        "lon": -176.43170869997212,
        "alt_km": 945.95688833236,
        "timestamp": "2025-12-27T16:33:30.496227+00:00",
        "meta_object_name": "FENGYUN 1C DEB",
        "meta_object_id": "1999-025QJ",
        "meta_epoch": "2025-12-27T11:17:21.448896",
        "meta_mean_motion": 13.98297257,
        "meta_eccentricity": 0.0075679,
        "meta_inclination": 98.9242,
        "meta_ra_of_asc_node": 357.3396,
        "meta_arg_of_pericenter": 298.1608,
        "meta_mean_anomaly": 183.4142,
        "meta_ephemeris_type": 0,
        "meta_classification_type": "U",
        "meta_norad_cat_id": 30081,
        "meta_element_set_no": 999,
        "meta_rev_at_epoch": 96560,
        "meta_bstar": 0.00031488,
        "meta_mean_motion_dot": 4.17e-06,
        "meta_mean_motion_ddot": 0,
        "tle_line1": "1 30081U 99025QJ  25361.47038714  .00000417  00000+0  31488-3 0  9996",
        "tle_line2": "2 30081  98.9242 357.3396 0075679 298.1608 183.4142 13.98297257965604"
      },
      "geometry": {
        "type": "Point",
        "coordinates": [
          -176.43170869997212,
          33.70026140773288
        ]
      }
    },
    {
      "type": "Feature",
      "properties": {
        "norad_id": 30082,
        "name": "FENGYUN 1C DEB",
        "group": "fengyun-1c-debris",
        "lat": -27.3732290793192,
        "lon": 107.2106867347643,
        "alt_km": 524.7655383385954,
        "timestamp": "2025-12-27T16:33:30.496237+00:00",
        "meta_object_name": "FENGYUN 1C DEB",
        "meta_object_id": "1999-025QK",
        "meta_epoch": "2025-12-26T19:03:20.754144",
        "meta_mean_motion": 15.15748083,
        "meta_eccentricity": 0.00705144,
        "meta_inclination": 98.8191,
        "meta_ra_of_asc_node": 290.782,
        "meta_arg_of_pericenter": 119.7449,
        "meta_mean_anomaly": 241.0819,
        "meta_ephemeris_type": 0,
        "meta_classification_type": "U",
        "meta_norad_cat_id": 30082,
        "meta_element_set_no": 999,
        "meta_rev_at_epoch": 1506,
        "meta_bstar": 0.00125319,
        "meta_mean_motion_dot": 0.00025439,
        "meta_mean_motion_ddot": 0,
        "tle_line1": "1 30082U 99025QK  25360.79399021  .00025439  00000+0  12532-2 0  9991",
        "tle_line2": "2 30082  98.8191 290.7820 0070514 119.7449 241.0819 15.15748083 15060"
      },
      "geometry": {
        "type": "Point",
        "coordinates": [
          107.2106867347643,
          -27.3732290793192
        ]
      }
    },
    {
      "type": "Feature",
      "properties": {
        "norad_id": 30086,
        "name": "FENGYUN 1C DEB",
        "group": "fengyun-1c-debris",
        "lat": -52.87904790092669,
        "lon": -156.8858052709125,
        "alt_km": 922.0529503944217,
        "timestamp": "2025-12-27T16:33:30.496247+00:00",
        "meta_object_name": "FENGYUN 1C DEB",
        "meta_object_id": "1999-025QP",
        "meta_epoch": "2025-12-27T08:42:47.028384",
        "meta_mean_motion": 14.03848739,
        "meta_eccentricity": 0.0061989,
        "meta_inclination": 98.9092,
        "meta_ra_of_asc_node": 34.7549,
        "meta_arg_of_pericenter": 94.1222,
        "meta_mean_anomaly": 288.0115,
        "meta_ephemeris_type": 0,
        "meta_classification_type": "U",
        "meta_norad_cat_id": 30086,
        "meta_element_set_no": 999,
        "meta_rev_at_epoch": 96901,
        "meta_bstar": 0.00024359,
        "meta_mean_motion_dot": 3.48e-06,
        "meta_mean_motion_ddot": 0,
        "tle_line1": "1 30086U 99025QP  25361.36304431  .00000348  00000+0  24359-3 0  9993",
        "tle_line2": "2 30086  98.9092  34.7549 0061989  94.1222 288.0115 14.03848739969018"
      },
      "geometry": {
        "type": "Point",
        "coordinates": [
          -156.8858052709125,
          -52.87904790092669
        ]
      }
    },
    {
      "type": "Feature",
      "properties": {
        "norad_id": 30087,
        "name": "FENGYUN 1C DEB",
        "group": "fengyun-1c-debris",
        "lat": 49.76484447032438,
        "lon": 23.49294766949897,
        "alt_km": 619.707085712952,
        "timestamp": "2025-12-27T16:33:30.496258+00:00",
        "meta_object_name": "FENGYUN 1C DEB",
        "meta_object_id": "1999-025QQ",
        "meta_epoch": "2025-12-27T01:31:20.148960",
        "meta_mean_motion": 14.35731317,
        "meta_eccentricity": 0.02303458,
        "meta_inclination": 98.3789,
        "meta_ra_of_asc_node": 32.9152,
        "meta_arg_of_pericenter": 78.7878,
        "meta_mean_anomaly": 336.6146,
        "meta_ephemeris_type": 0,
        "meta_classification_type": "U",
        "meta_norad_cat_id": 30087,
        "meta_element_set_no": 999,
        "meta_rev_at_epoch": 98901,
        "meta_bstar": 0.00028893158,
        "meta_mean_motion_dot": 1.081e-05,
        "meta_mean_motion_ddot": 0,
        "tle_line1": "1 30087U 99025QQ  25361.06342765  .00001081  00000+0  28893-3 0  9995",
        "tle_line2": "2 30087  98.3789  32.9152 0230345  78.7878 336.6146 14.35731317989019"
      },
      "geometry": {
        "type": "Point",
        "coordinates": [
          23.49294766949897,
          49.76484447032438
        ]
      }
    },
    {
      "type": "Feature",
      "properties": {
        "norad_id": 30088,
        "name": "FENGYUN 1C DEB",
        "group": "fengyun-1c-debris",
        "lat": -36.68808473339707,
        "lon": -8.191628091972648,
        "alt_km": 848.8431677617218,
        "timestamp": "2025-12-27T16:33:30.496268+00:00",
        "meta_object_name": "FENGYUN 1C DEB",
        "meta_object_id": "1999-025QR",
        "meta_epoch": "2025-12-26T22:36:20.350080",
        "meta_mean_motion": 14.35941894,
        "meta_eccentricity": 0.0201251,
        "meta_inclination": 98.356,
        "meta_ra_of_asc_node": 344.7959,
        "meta_arg_of_pericenter": 204.8152,
        "meta_mean_anomaly": 211.4847,
        "meta_ephemeris_type": 0,
        "meta_classification_type": "U",
        "meta_norad_cat_id": 30088,
        "meta_element_set_no": 999,
        "meta_rev_at_epoch": 98876,
        "meta_bstar": 0.00030956,
        "meta_mean_motion_dot": 1.082e-05,
        "meta_mean_motion_ddot": 0,
        "tle_line1": "1 30088U 99025QR  25360.94190220  .00001082  00000+0  30956-3 0  9993",
        "tle_line2": "2 30088  98.3560 344.7959 0201251 204.8152 211.4847 14.35941894988769"
      },
      "geometry": {
        "type": "Point",
        "coordinates": [
          -8.191628091972648,
          -36.68808473339707
        ]
      }
    },
    {
      "type": "Feature",
      "properties": {
        "norad_id": 30089,
        "name": "FENGYUN 1C DEB",
        "group": "fengyun-1c-debris",
        "lat": 50.10578220776339,
        "lon": -103.37673862459295,
        "alt_km": 808.2883110841049,
        "timestamp": "2025-12-27T16:33:30.496278+00:00",
        "meta_object_name": "FENGYUN 1C DEB",
        "meta_object_id": "1999-025QS",
        "meta_epoch": "2025-12-27T12:07:01.416000",
        "meta_mean_motion": 14.30323144,
        "meta_eccentricity": 0.0074008,
        "meta_inclination": 98.9037,
        "meta_ra_of_asc_node": 267.2423,
        "meta_arg_of_pericenter": 166.7446,
        "meta_mean_anomaly": 12.6843,
        "meta_ephemeris_type": 0,
        "meta_classification_type": "U",
        "meta_norad_cat_id": 30089,
        "meta_element_set_no": 999,
        "meta_rev_at_epoch": 98690,
        "meta_bstar": 0.00024448,
        "meta_mean_motion_dot": 6.08e-06,
        "meta_mean_motion_ddot": 0,
        "tle_line1": "1 30089U 99025QS  25361.50487750  .00000608  00000+0  24448-3 0  9996",
        "tle_line2": "2 30089  98.9037 267.2423 0074008 166.7446  12.6843 14.30323144986908"
      },
      "geometry": {
        "type": "Point",
        "coordinates": [
          -103.37673862459295,
          50.10578220776339
        ]
      }
    }
  ]
}